STARLINK-35507          
1 66327U 25253J   25322.16670139 -.01750090  00000+0 -99028-2 0  9991
2 66327  42.9961 129.8136 0001801 274.8755  48.0715 15.80923311  3073
STARLINK-35460          
1 66328U 25253K   25322.16670139 -.01846828  00000+0 -10742-1 0  9992
2 66328  42.9955 129.7604 0001792 272.1773  71.2695 15.80493366  3073
STARLINK-35505          
1 66329U 25253L   25322.16670139 -.01746530  00000+0 -98661-2 0  9999
2 66329  42.9961 129.8197 0001790 272.5844  48.2018 15.80953503  2975
STARLINK-35512          
1 66330U 25253M   25322.16670139 -.01807950  00000+0 -10442-1 0  9995
2 66330  42.9958 129.7881 0001838 271.9768  61.0653 15.80580064  2979
STARLINK-35257          
1 66331U 25253N   25322.16670139 -.01866380  00000+0 -10907-1 0  9994
2 66331  42.9958 129.7452 0001826 276.1851  73.5978 15.80425428  2702
STARLINK-35322          
1 66332U 25253P   25322.16670139 -.01834207  00000+0 -10641-1 0  9993
2 66332  42.9959 129.7713 0001846 272.5834  66.7118 15.80528395  2973
STARLINK-35400          
1 66333U 25253Q   25322.16670139 -.01864421  00000+0 -10888-1 0  9998
2 66333  42.9953 129.7496 0001772 272.3349  75.4026 15.80438828  2979
STARLINK-35407          
1 66334U 25253R   25322.16670139  .00393215  00000+0  18063-2 0  9998
2 66334  42.9962 129.7664 0003065 278.8976  63.2063 15.81777111  2979
STARLINK-35417          
1 66335U 25253S   25322.16670139 -.01902765  00000+0 -11218-1 0  9992
2 66335  42.9959 129.7233 0001805 274.1029  84.3638 15.80298806  2976
STARLINK-35404          
1 66336U 25253T   25322.16670139 -.01882236  00000+0 -11047-1 0  9993
2 66336  42.9958 129.7395 0001801 274.4293  77.7265 15.80361428  3072
STARLINK-34783          
1 66337U 25253U   25322.16670139 -.01929225  00000+0 -11449-1 0  9990
2 66337  42.9959 129.7170 0001736 276.2520  84.7814 15.80204052  3027
STARLINK-35477          
1 66338U 25253V   25322.16670139 -.01901159  00000+0 -11214-1 0  9997
2 66338  42.9956 129.7291 0001764 276.9545  79.6106 15.80285998  3074
